[{"OBJECT_NAME":"STARLINK-31405","OBJECT_ID":"2024-049T","EPOCH":"2026-03-09T07:01:58.423584","MEAN_MOTION":15.27575036,"ECCENTRICITY":0.00013434,"INCLINATION":43.0006,"RA_OF_ASC_NODE":145.9235,"ARG_OF_PERICENTER":257.1219,"MEAN_ANOMALY":102.9483,"EPHEMERIS_TYPE":0,"CLASSIFICATION_TYPE":"U","NORAD_CAT_ID":59248,"ELEMENT_SET_NO":999,"REV_AT_EPOCH":11233,"BSTAR":-7.978057e-5,"MEAN_MOTION_DOT":-2.456e-5,"MEAN_MOTION_DDOT":0},{"OBJECT_NAME":"FENGYUN 1C DEB","OBJECT_ID":"1999-025EJQ","EPOCH":"2026-03-08T21:27:56.444256","MEAN_MOTION":15.23229897,"ECCENTRICITY":0.00101559,"INCLINATION":98.6645,"RA_OF_ASC_NODE":227.592,"ARG_OF_PERICENTER":263.6857,"MEAN_ANOMALY":96.3219,"EPHEMERIS_TYPE":0,"CLASSIFICATION_TYPE":"U","NORAD_CAT_ID":37470,"ELEMENT_SET_NO":999,"REV_AT_EPOCH":66762,"BSTAR":0.011057202,"MEAN_MOTION_DOT":0.00271626,"MEAN_MOTION_DDOT":0}]
